CSS (TIANHE)            
1 48274U 21035A   23324.32090422  .00029043  00000+0  32417-3 0  9999
2 48274  41.4713 285.2639 0005534 188.4107 171.6641 15.62120953146245
